OBJECT_NAME,OBJECT_ID,EPOCH,MEAN_MOTION,ECCENTRICITY,INCLINATION,RA_OF_ASC_NODE,ARG_OF_PERICENTER,MEAN_ANOMALY,EPHEMERIS_TYPE,CLASSIFICATION_TYPE,NORAD_CAT_ID,ELEMENT_SET_NO,REV_AT_EPOCH,BSTAR,MEAN_MOTION_DOT,MEAN_MOTION_DDOT
MOST,2003-031D,2024-07-07T13:07:20.311104,14.20977169,.0010711,98.7055,196.2280,136.3369,223.8657,0,U,27843,999,8991,.81814E-4,.134E-5,0
CUTE-1 (CO-55),2003-031E,2024-07-07T23:16:05.675232,14.23304231,.0011051,98.6764,196.7086,85.3516,274.8924,0,U,27844,999,9077,.24953E-3,.522E-5,0
CUBESAT XI-IV (CO-57),2003-031J,2024-07-07T23:34:20.951616,14.22739886,.0010918,98.6795,196.9542,99.5118,260.7295,0,U,27848,999,9054,.21555E-3,.44E-5,0
GALAXY 23 (G-23),2003-034A,2024-07-07T17:46:24.906720,1.00271237,.0002717,1.3582,88.8126,18.6743,324.3977,0,U,27854,999,8143,0,.8E-7,0
SCISAT 1,2003-036A,2024-07-08T04:04:16.781952,14.79271929,.0007467,73.9318,138.1983,350.7187,9.3849,0,U,27858,999,12652,.15882E-3,.1146E-4,0
COSMOS 2400,2003-037A,2024-07-07T19:47:14.454240,12.45166661,.0021505,82.4695,54.6349,165.2751,194.8960,0,U,27868,999,94936,.18202E-3,.36E-6,0
COSMOS 2401,2003-037B,2024-07-08T04:57:22.572864,12.45482057,.0022357,82.4688,51.0807,160.7656,199.4274,0,U,27869,999,94965,.22841E-3,.43E-6,0
USA 170,2003-040A,2024-07-07T06:26:35.908224,1.00276018,.000133,8.9794,54.2629,25.5817,326.6588,0,U,27875,999,2586,0,.119E-5,0
MOZHAYETS 4 (RS-22),2003-042A,2024-07-08T04:45:49.540320,14.70061668,.0011828,98.2932,346.7333,0.0199,173.2732,0,U,27939,999,11136,.26772E-3,.1557E-4,0
LARETS,2003-042F,2024-07-08T04:03:36.760608,14.63530457,.00136,98.3180,330.6080,90.5030,269.7730,0,U,27944,999,10972,.31469E-4,.114E-5,0
GALAXY 13 (HORIZONS-1),2003-044A,2024-07-07T10:24:26.333568,1.00272163,.0000252,0.0155,50.5787,339.7509,261.6376,0,U,27954,999,3945,0,.129E-5,0
IRS-P6 (RESOURCESAT-1),2003-046A,2024-07-07T22:49:12.252864,14.35497064,.006375,98.2928,246.4435,307.8696,177.1041,0,U,28051,999,7877,.83996E-4,.205E-5,0
DMSP 5D-3 F16 (USA 172),2003-048A,2024-07-08T05:40:27.156288,14.14046802,.0007338,99.0203,196.9017,2.7421,62.6868,0,U,28054,999,6925,.85039E-4,.116E-5,0
CHUANGXIN 1 (CX-1),2003-049B,2024-07-07T05:21:52.668000,14.47759660,.0012803,98.5902,69.3525,169.5355,190.6106,0,U,28058,999,9352,.9906E-4,.32E-5,0
YAMAL 202,2003-053A,2024-07-07T20:50:46.670208,1.00271478,.0004462,4.5408,79.5081,40.2518,282.7096,0,U,28089,999,7556,0,-.86E-6,0
UFO 11 (USA 174),2003-057A,2024-07-08T03:17:40.570368,1.00271587,.0003653,8.0983,36.6849,77.5291,297.1519,0,U,28117,999,7531,0,-.108E-5,0
NAVSTAR 53 (USA 175),2003-058A,2024-07-06T21:46:22.226880,2.00548951,.0068346,54.5230,50.5586,342.1917,17.6347,0,U,28129,999,15054,0,-.75E-6,0
USA 176 (DSP 22),2004-004A,2024-07-07T14:52:42.719232,1.00275293,.0000375,11.0889,30.8972,316.3194,249.3411,0,U,28158,999,2449,0,-.228E-5,0
ABS-4 (MOBISAT-1),2004-007A,2024-07-07T07:08:42.868032,1.00271753,.0004461,4.2327,80.6086,35.7375,337.5301,0,U,28184,999,4522,0,.33E-6,0
EUTELSAT 7A,2004-008A,2024-07-07T12:35:42.747648,1.00272277,.0002582,4.0183,80.3997,32.5740,222.6927,0,U,28187,999,7423,0,.98E-6,0
NAVSTAR 54 (USA 177),2004-009A,2024-07-07T12:00:12.584160,2.00558792,.0098338,55.4363,304.2292,149.2664,275.1084,0,U,28190,999,14871,0,-.72E-6,0
SHIYAN 1 (SY-1),2004-012A,2024-07-07T13:49:16.701600,15.12124420,.0007997,97.9628,218.2026,328.9901,31.0855,0,U,28220,999,10307,.47603E-3,.814E-4,0
AMC-11,2004-017A,2024-07-07T12:16:42.543264,1.00272752,.0000951,0.0316,317.4852,141.4138,260.1241,0,U,28252,999,7375,0,-.53E-6,0
INTELSAT 10-02,2004-022A,2024-07-07T23:29:54.845664,1.00270614,.0000891,0.0380,258.1396,209.7955,169.9723,0,U,28358,999,7351,0,-.14E-6,0
NAVSTAR 55 (USA 178),2004-023A,2024-07-06T21:57:29.467296,2.00572701,.0151783,54.4322,115.4669,281.5747,259.2873,0,U,28361,999,14681,0,-.3E-6,0
APRIZESAT 2,2004-025A,2024-07-07T12:06:43.404192,14.37330703,.0105691,98.0820,26.4828,232.2404,126.9174,0,U,28366,999,4966,.95892E-4,.262E-5,0
SAUDICOMSAT 1,2004-025D,2024-07-07T12:01:16.406112,14.54034436,.0033727,98.5380,171.0608,38.3340,322.0244,0,U,28369,999,6093,.19805E-3,.793E-5,0
SAUDICOMSAT 2,2004-025E,2024-07-07T12:29:08.387808,14.48769940,.0055363,98.6297,171.9392,247.7431,111.7884,0,U,28370,999,5729,.14183E-3,.496E-5,0
SAUDISAT 2,2004-025F,2024-07-07T22:44:05.894880,14.55535542,.0024327,98.4839,163.4016,317.7915,42.1409,0,U,28371,999,6256,.14167E-3,.571E-5,0
APRIZESAT 1,2004-025G,2024-07-07T21:46:03.621504,14.50719673,.0045833,98.5921,171.6601,150.4137,209.9665,0,U,28372,999,5906,.13045E-3,.471E-5,0
AURA,2004-026A,2024-07-07T11:15:49.502016,14.58682595,.0002081,98.2515,134.1662,54.8168,305.3226,0,U,28376,999,6263,.28581E-3,.1286E-4,0
ANIK F2,2004-027A,2024-07-07T14:23:03.870240,1.00272246,.0002459,1.4528,88.3538,9.8002,292.5561,0,U,28378,999,7324,0,-.54E-6,0
COSMOS 2407,2004-028A,2024-07-07T16:00:21.508704,13.76217343,.0040629,82.9593,240.2344,77.4986,35.9504,0,U,28380,999,247,.71686E-4,.86E-6,0
SHIJIAN-6 01A (SJ-6 01A),2004-035A,2024-07-07T14:14:06.996192,15.02332784,.0008915,97.6459,208.5787,59.6602,300.5503,0,U,28413,999,8046,.52267E-3,.6858E-4,0
SHIJIAN-6 01B (SJ-6 01B),2004-035B,2024-07-08T05:24:44.588448,14.98301285,.0006976,97.6693,207.4201,59.5247,300.6664,0,U,28414,999,8033,.24896E-3,.2905E-4,0
COSMOS 2408,2004-037A,2024-07-07T11:37:37.654176,12.45654684,.001664,82.4835,50.4475,26.8936,333.3005,0,U,28419,999,89954,.27846E-3,.5E-6,0
COSMOS 2409,2004-037B,2024-07-08T04:58:01.919424,12.45302235,.0014389,82.4836,52.9182,35.6283,324.5755,0,U,28420,999,89958,.16871E-3,.34E-6,0
AMC-15,2004-041A,2024-07-07T16:07:53.954400,1.00271453,.0002251,0.0483,293.6627,154.3891,334.9804,0,U,28446,999,7223,0,-.92E-6,0
JB-3 3 (ZY 2C),2004-044A,2024-07-07T22:19:43.101408,15.10177764,.0040081,97.2089,6.0923,170.5121,189.6876,0,U,28470,999,8039,.23538E-3,.3855E-4,0
NAVSTAR 56 (USA 180),2004-045A,2024-07-08T02:15:10.488096,2.00561498,.0161847,55.4241,353.3733,292.9697,245.6258,0,U,28474,999,14419,0,-.106E-5,0
SWIFT,2004-047A,2024-07-07T22:08:07.345536,15.19697372,.0007765,20.5575,32.6904,185.1118,174.9240,0,U,28485,999,7748,.55984E-3,.12867E-3,0
HELIOS 2A,2004-049A,2024-07-08T04:39:03.279744,14.97794311,.0014492,98.3196,185.0361,126.3439,233.9121,0,U,28492,999,4744,.24803E-3,.2852E-4,0
NANOSAT-1,2004-049B,2024-07-07T20:10:20.904672,14.76604339,.0005155,98.1487,303.5632,61.4444,298.7284,0,U,28493,999,5064,.25341E-3,.1717E-4,0
COSMOS 2414,2005-002A,2024-07-08T04:53:21.833952,13.87781248,.004002,82.9482,219.8309,188.9039,171.1419,0,U,28521,999,98580,.47373E-4,.72E-6,0
NSS-10,2005-003A,2024-07-07T11:18:06.952320,1.00272595,.0002659,4.6663,78.9687,24.7042,314.3031,0,U,28526,999,4603,0,-.258E-5,0
XTAR-EUR,2005-005A,2024-07-07T08:41:33.952128,1.00271390,.0002609,2.5006,85.6026,16.0384,343.5136,0,U,28542,999,7107,0,.145E-5,0
XM-3 (RHYTHM),2005-008A,2024-07-07T09:13:42.852864,1.00270554,.0004649,0.0056,342.6588,243.3791,113.0528,0,U,28626,999,3550,0,-.208E-5,0
INMARSAT 4-F1,2005-009A,2024-07-07T19:11:58.691904,1.00272587,.0001464,4.3011,41.1365,85.2683,265.9317,0,U,28628,999,7055,0,.28E-6,0
IRS-P5 (CARTOSAT-1),2005-017A,2024-07-07T11:11:24.268704,14.87115547,.000056,97.6121,232.0682,136.8066,223.3195,0,U,28649,999,3817,.26009E-3,.2284E-4,0
NOAA 18,2005-018A,2024-07-08T03:56:54.877056,14.13247676,.0014165,98.8743,266.9554,8.5629,351.5782,0,U,28654,999,98622,.1766E-3,.287E-5,0
DIRECTV 8,2005-019A,2024-07-07T17:46:54.981696,1.00272065,.0002766,0.0183,33.4712,81.2413,319.1430,0,U,28659,999,7007,0,-.2E-7,0
GALAXY 28 (G-28),2005-022A,2024-07-08T04:21:42.582240,1.00270032,.000155,1.4638,87.7486,140.7796,34.4980,0,U,28702,999,6971,0,-.189E-5,0
SJ-7,2005-024A,2024-07-07T14:02:18.281184,15.05641120,.0020271,97.7657,195.1272,312.9130,47.0394,0,U,28737,999,4064,.37733E-3,.5407E-4,0
THAICOM 4,2005-028A,2024-07-07T20:44:14.569728,1.00268892,.0001927,0.0254,46.5365,66.8122,243.5087,0,U,28786,999,6921,0,-.366E-5,0
GALAXY 14 (G-14),2005-030A,2024-07-08T03:05:38.770080,1.00272948,.0001276,3.1838,83.5987,22.8651,259.3915,0,U,28790,999,6919,0,.15E-5,0
REIMEI (INDEX),2005-031B,2024-07-07T20:11:48.664608,14.98220557,.0022924,97.9851,277.6877,353.3611,6.7304,0,U,28810,999,2430,.40719E-3,.4798E-4,0
ANIK F1R,2005-036A,2024-07-07T16:07:16.360032,1.00271800,.0003445,2.4842,85.4113,19.5817,315.6176,0,U,28868,999,6904,0,-.79E-6,0
NAVSTAR 57 (USA 183),2005-038A,2024-07-07T10:22:37.840224,2.00554076,.0136374,55.4822,301.6941,284.2483,114.9174,0,U,28874,999,13760,0,-.69E-6,0
SYRACUSE 3A,2005-041B,2024-07-08T03:09:24.331968,1.00270314,.0002508,2.8264,84.6767,15.8578,279.5642,0,U,28885,999,6863,0,.127E-5,0
BEIJING 1,2005-043A,2024-07-08T03:57:19.161504,14.62383190,.0014474,98.2028,312.8720,345.5999,14.4788,0,U,28890,999,99696,.10253E-3,.471E-5,0
SINAH 1,2005-043D,2024-07-07T20:28:46.957728,14.62791209,.0014315,98.1968,313.5321,343.2301,16.8426,0,U,28893,999,99701,.12801E-3,.606E-5,0
CUBESAT XI-V,2005-043F,2024-07-08T04:03:05.355072,14.67843645,.001439,98.2047,326.0289,292.4684,67.4997,0,U,28895,999,99776,.37165E-3,.2075E-4,0
INMARSAT 4-F2,2005-044A,2024-07-07T12:09:50.603616,1.00271915,.0001634,4.2108,42.5342,73.8585,135.5013,0,U,28899,999,6840,0,-.266E-5,0
SPACEWAY 2,2005-046B,2024-07-07T10:32:57.075936,1.00272340,.0000466,3.6553,80.0483,192.0843,33.0808,0,U,28903,999,4422,0,.97E-6,0
COSMOS 2416,2005-048A,2024-07-07T14:41:15.919584,12.55559389,.0007478,82.4679,41.4093,319.9756,94.4938,0,U,28908,999,84985,.19167E-3,.42E-6,0
METEOSAT-9 (MSG-2),2005-049B,2024-07-07T04:49:43.992768,1.00273503,.0001755,7.7316,60.7049,358.0314,344.9946,0,U,28912,999,6795,0,.118E-5,0
EUTELSAT 174A,2005-052A,2024-07-07T12:10:42.798720,1.00271250,.0006155,2.4116,85.2942,20.8959,176.4088,0,U,28924,999,4521,0,.4E-7,0
ECHOSTAR 10,2006-003A,2024-07-07T16:06:23.728608,1.00272067,.0002097,0.0183,329.9917,81.1411,6.3693,0,U,28935,999,6740,0,-.59E-6,0
SPAINSAT,2006-007A,2024-07-07T06:57:04.056192,1.00270847,.0004001,0.0256,282.1721,216.4128,221.4454,0,U,28945,999,6709,0,-.22E-5,0
